CCSDS_OMM_VERS = 2.0
CREATION_DATE  = 
ORIGINATOR     = 

OBJECT_NAME    = STARLINK-36572
OBJECT_ID      = 2026-014E
CENTER_NAME    = EARTH
REF_FRAME      = TEME
TIME_SYSTEM    = UTC
MEAN_ELEMENT_THEORY = SGP/SGP4

EPOCH          = 2026-02-07T03:51:37.211904
MEAN_MOTION    = 15.80943735
ECCENTRICITY   = .0001256
INCLINATION    = 97.2834
RA_OF_ASC_NODE = 281.5284
ARG_OF_PERICENTER = 105.8058
MEAN_ANOMALY   = 254.3349

EPHEMERIS_TYPE = 0
CLASSIFICATION_TYPE = U
NORAD_CAT_ID   = 67536
ELEMENT_SET_NO = 999
REV_AT_EPOCH   = 376
BSTAR          = .11456E-2
MEAN_MOTION_DOT = .226409E-2
MEAN_MOTION_DDOT = 0

CCSDS_OMM_VERS = 2.0
CREATION_DATE  = 
ORIGINATOR     = 

OBJECT_NAME    = STARLINK-36561
OBJECT_ID      = 2026-014F
CENTER_NAME    = EARTH
REF_FRAME      = TEME
TIME_SYSTEM    = UTC
MEAN_ELEMENT_THEORY = SGP/SGP4

EPOCH          = 2026-02-07T04:00:01.999584
MEAN_MOTION    = 15.75172863
ECCENTRICITY   = .0001523
INCLINATION    = 97.2798
RA_OF_ASC_NODE = 281.5288
ARG_OF_PERICENTER = 107.9864
MEAN_ANOMALY   = 278.5653

EPHEMERIS_TYPE = 0
CLASSIFICATION_TYPE = U
NORAD_CAT_ID   = 67537
ELEMENT_SET_NO = 999
REV_AT_EPOCH   = 378
BSTAR          = .11879E-3
MEAN_MOTION_DOT = .17612E-3
MEAN_MOTION_DDOT = 0

CCSDS_OMM_VERS = 2.0
CREATION_DATE  = 
ORIGINATOR     = 

OBJECT_NAME    = STARLINK-36397
OBJECT_ID      = 2026-014G
CENTER_NAME    = EARTH
REF_FRAME      = TEME
TIME_SYSTEM    = UTC
MEAN_ELEMENT_THEORY = SGP/SGP4

EPOCH          = 2026-02-07T04:00:01.999584
MEAN_MOTION    = 15.75216269
ECCENTRICITY   = .0001653
INCLINATION    = 97.2842
RA_OF_ASC_NODE = 281.5202
ARG_OF_PERICENTER = 96.2460
MEAN_ANOMALY   = 268.2935

EPHEMERIS_TYPE = 0
CLASSIFICATION_TYPE = U
NORAD_CAT_ID   = 67538
ELEMENT_SET_NO = 999
REV_AT_EPOCH   = 378
BSTAR          = -.32105E-3
MEAN_MOTION_DOT = -.47805E-3
MEAN_MOTION_DDOT = 0

CCSDS_OMM_VERS = 2.0
CREATION_DATE  = 
ORIGINATOR     = 

OBJECT_NAME    = STARLINK-36573
OBJECT_ID      = 2026-014H
CENTER_NAME    = EARTH
REF_FRAME      = TEME
TIME_SYSTEM    = UTC
MEAN_ELEMENT_THEORY = SGP/SGP4

EPOCH          = 2026-02-07T03:47:40.826688
MEAN_MOTION    = 15.78378452
ECCENTRICITY   = .000901
INCLINATION    = 97.2804
RA_OF_ASC_NODE = 281.5298
ARG_OF_PERICENTER = 168.2672
MEAN_ANOMALY   = 191.8806

EPHEMERIS_TYPE = 0
CLASSIFICATION_TYPE = U
NORAD_CAT_ID   = 67539
ELEMENT_SET_NO = 999
REV_AT_EPOCH   = 376
BSTAR          = -.23725E-1
MEAN_MOTION_DOT = -.3411624E-1
MEAN_MOTION_DDOT = 0

CCSDS_OMM_VERS = 2.0
CREATION_DATE  = 
ORIGINATOR     = 

OBJECT_NAME    = STARLINK-36585
OBJECT_ID      = 2026-014J
CENTER_NAME    = EARTH
REF_FRAME      = TEME
TIME_SYSTEM    = UTC
MEAN_ELEMENT_THEORY = SGP/SGP4

EPOCH          = 2026-02-07T04:00:01.999584
MEAN_MOTION    = 15.77025189
ECCENTRICITY   = .000152
INCLINATION    = 97.2784
RA_OF_ASC_NODE = 281.5367
ARG_OF_PERICENTER = 93.2883
MEAN_ANOMALY   = 315.8022

EPHEMERIS_TYPE = 0
CLASSIFICATION_TYPE = U
NORAD_CAT_ID   = 67540
ELEMENT_SET_NO = 999
REV_AT_EPOCH   = 378
BSTAR          = -.1313E-1
MEAN_MOTION_DOT = -.1856844E-1
MEAN_MOTION_DDOT = 0

CCSDS_OMM_VERS = 2.0
CREATION_DATE  = 
ORIGINATOR     = 

OBJECT_NAME    = STARLINK-36579
OBJECT_ID      = 2026-014K
CENTER_NAME    = EARTH
REF_FRAME      = TEME
TIME_SYSTEM    = UTC
MEAN_ELEMENT_THEORY = SGP/SGP4

EPOCH          = 2026-02-07T03:44:14.888832
MEAN_MOTION    = 15.80932442
ECCENTRICITY   = .0001227
INCLINATION    = 97.2835
RA_OF_ASC_NODE = 281.5342
ARG_OF_PERICENTER = 116.4045
MEAN_ANOMALY   = 243.7350

EPHEMERIS_TYPE = 0
CLASSIFICATION_TYPE = U
NORAD_CAT_ID   = 67541
ELEMENT_SET_NO = 999
REV_AT_EPOCH   = 376
BSTAR          = .13161E-2
MEAN_MOTION_DOT = .261027E-2
MEAN_MOTION_DDOT = 0

CCSDS_OMM_VERS = 2.0
CREATION_DATE  = 
ORIGINATOR     = 

OBJECT_NAME    = STARLINK-35934
OBJECT_ID      = 2026-014L
CENTER_NAME    = EARTH
REF_FRAME      = TEME
TIME_SYSTEM    = UTC
MEAN_ELEMENT_THEORY = SGP/SGP4

EPOCH          = 2026-02-07T03:42:12.085920
MEAN_MOTION    = 15.80936322
ECCENTRICITY   = .0002242
INCLINATION    = 97.2840
RA_OF_ASC_NODE = 281.5350
ARG_OF_PERICENTER = 110.6878
MEAN_ANOMALY   = 249.4631

EPHEMERIS_TYPE = 0
CLASSIFICATION_TYPE = U
NORAD_CAT_ID   = 67542
ELEMENT_SET_NO = 999
REV_AT_EPOCH   = 375
BSTAR          = .12056E-2
MEAN_MOTION_DOT = .238531E-2
MEAN_MOTION_DDOT = 0

CCSDS_OMM_VERS = 2.0
CREATION_DATE  = 
ORIGINATOR     = 

OBJECT_NAME    = STARLINK-36581
OBJECT_ID      = 2026-014M
CENTER_NAME    = EARTH
REF_FRAME      = TEME
TIME_SYSTEM    = UTC
MEAN_ELEMENT_THEORY = SGP/SGP4

EPOCH          = 2026-02-07T03:40:28.507008
MEAN_MOTION    = 15.80909859
ECCENTRICITY   = .0000793
INCLINATION    = 97.2777
RA_OF_ASC_NODE = 281.5361
ARG_OF_PERICENTER = 161.2129
MEAN_ANOMALY   = 198.9169

EPHEMERIS_TYPE = 0
CLASSIFICATION_TYPE = U
NORAD_CAT_ID   = 67543
ELEMENT_SET_NO = 999
REV_AT_EPOCH   = 376
BSTAR          = .58176E-3
MEAN_MOTION_DOT = .113231E-2
MEAN_MOTION_DDOT = 0

CCSDS_OMM_VERS = 2.0
CREATION_DATE  = 
ORIGINATOR     = 

OBJECT_NAME    = STARLINK-36565
OBJECT_ID      = 2026-014N
CENTER_NAME    = EARTH
REF_FRAME      = TEME
TIME_SYSTEM    = UTC
MEAN_ELEMENT_THEORY = SGP/SGP4

EPOCH          = 2026-02-07T04:00:01.999584
MEAN_MOTION    = 15.80851573
ECCENTRICITY   = .0001246
INCLINATION    = 97.2849
RA_OF_ASC_NODE = 281.5538
ARG_OF_PERICENTER = 79.0374
MEAN_ANOMALY   = 4.3300

EPHEMERIS_TYPE = 0
CLASSIFICATION_TYPE = U
NORAD_CAT_ID   = 67544
ELEMENT_SET_NO = 999
REV_AT_EPOCH   = 378
BSTAR          = -.1491E-4
MEAN_MOTION_DOT = -.3002E-4
MEAN_MOTION_DDOT = 0

CCSDS_OMM_VERS = 2.0
CREATION_DATE  = 
ORIGINATOR     = 

OBJECT_NAME    = STARLINK-36583
OBJECT_ID      = 2026-014P
CENTER_NAME    = EARTH
REF_FRAME      = TEME
TIME_SYSTEM    = UTC
MEAN_ELEMENT_THEORY = SGP/SGP4

EPOCH          = 2026-02-07T04:00:01.999584
MEAN_MOTION    = 15.75159784
ECCENTRICITY   = .0001018
INCLINATION    = 97.2843
RA_OF_ASC_NODE = 281.5477
ARG_OF_PERICENTER = 82.3391
MEAN_ANOMALY   = 350.1829

EPHEMERIS_TYPE = 0
CLASSIFICATION_TYPE = U
NORAD_CAT_ID   = 67545
ELEMENT_SET_NO = 999
REV_AT_EPOCH   = 378
BSTAR          = .11053E-2
MEAN_MOTION_DOT = .167793E-2
MEAN_MOTION_DDOT = 0

CCSDS_OMM_VERS = 2.0
CREATION_DATE  = 
ORIGINATOR     = 

OBJECT_NAME    = STARLINK-36580
OBJECT_ID      = 2026-014Q
CENTER_NAME    = EARTH
REF_FRAME      = TEME
TIME_SYSTEM    = UTC
MEAN_ELEMENT_THEORY = SGP/SGP4

EPOCH          = 2026-02-07T04:00:01.999584
MEAN_MOTION    = 15.80836517
ECCENTRICITY   = .0001002
INCLINATION    = 97.2789
RA_OF_ASC_NODE = 281.5554
ARG_OF_PERICENTER = 83.1253
MEAN_ANOMALY   = 14.1005

EPHEMERIS_TYPE = 0
CLASSIFICATION_TYPE = U
NORAD_CAT_ID   = 67546
ELEMENT_SET_NO = 999
REV_AT_EPOCH   = 378
BSTAR          = -.36072E-3
MEAN_MOTION_DOT = -.68757E-3
MEAN_MOTION_DDOT = 0

CCSDS_OMM_VERS = 2.0
CREATION_DATE  = 
ORIGINATOR     = 

OBJECT_NAME    = STARLINK-36584
OBJECT_ID      = 2026-014R
CENTER_NAME    = EARTH
REF_FRAME      = TEME
TIME_SYSTEM    = UTC
MEAN_ELEMENT_THEORY = SGP/SGP4

EPOCH          = 2026-02-07T04:00:01.999584
MEAN_MOTION    = 15.80862171
ECCENTRICITY   = .0002319
INCLINATION    = 97.2760
RA_OF_ASC_NODE = 281.5573
ARG_OF_PERICENTER = 103.4769
MEAN_ANOMALY   = 359.2256

EPHEMERIS_TYPE = 0
CLASSIFICATION_TYPE = U
NORAD_CAT_ID   = 67547
ELEMENT_SET_NO = 999
REV_AT_EPOCH   = 378
BSTAR          = -.49995E-3
MEAN_MOTION_DOT = -.95086E-3
MEAN_MOTION_DDOT = 0

