STARLINK-36572          
1 67536U 26014E   26038.16084736  .00226409  00000+0  11456-2 0  9995
2 67536  97.2834 281.5284 0001256 105.8058 254.3349 15.80943735  3764
STARLINK-36561          
1 67537U 26014F   26038.16668981  .00017612  00000+0  11879-3 0  9990
2 67537  97.2798 281.5288 0001523 107.9864 278.5653 15.75172863  3781
STARLINK-36397          
1 67538U 26014G   26038.16668981 -.00047805  00000+0 -32105-3 0  9995
2 67538  97.2842 281.5202 0001653  96.2460 268.2935 15.75216269  3782
STARLINK-36573          
1 67539U 26014H   26038.15811142 -.03411624  00000+0 -23725-1 0  9997
2 67539  97.2804 281.5298 0009010 168.2672 191.8806 15.78378452  3768
STARLINK-36585          
1 67540U 26014J   26038.16668981 -.01856844  00000+0 -13130-1 0  9995
2 67540  97.2784 281.5367 0001520  93.2883 315.8022 15.77025189  3788
STARLINK-36579          
1 67541U 26014K   26038.15572788  .00261027  00000+0  13161-2 0  9999
2 67541  97.2835 281.5342 0001227 116.4045 243.7350 15.80932442  3765
STARLINK-35934          
1 67542U 26014L   26038.15430655  .00238531  00000+0  12056-2 0  9992
2 67542  97.2840 281.5350 0002242 110.6878 249.4631 15.80936322  3754
STARLINK-36581          
1 67543U 26014M   26038.15310772  .00113231  00000+0  58176-3 0  9993
2 67543  97.2777 281.5361 0000793 161.2129 198.9169 15.80909859  3766
STARLINK-36565          
1 67544U 26014N   26038.16668981 -.00003002  00000+0 -14910-4 0  9998
2 67544  97.2849 281.5538 0001246  79.0374   4.3300 15.80851573  3783
STARLINK-36583          
1 67545U 26014P   26038.16668981  .00167793  00000+0  11053-2 0  9998
2 67545  97.2843 281.5477 0001018  82.3391 350.1829 15.75159784  3780
STARLINK-36580          
1 67546U 26014Q   26038.16668981 -.00068757  00000+0 -36072-3 0  9990
2 67546  97.2789 281.5554 0001002  83.1253  14.1005 15.80836517  3780
STARLINK-36584          
1 67547U 26014R   26038.16668981 -.00095086  00000+0 -49995-3 0  9994
2 67547  97.2760 281.5573 0002319 103.4769 359.2256 15.80862171  3787
